*******************************************************************************
Ephemeris / WWW_USER Tue Mar 27 20:11:06 2018 Pasadena, USA      / Horizons    
*******************************************************************************
Target body name: Amalthea (505)                  {source: jup310}
Center body name: Solar System Barycenter (0)     {source: DE431mx}
Center-site name: BODY CENTER
*******************************************************************************
Start time      : A.D. 2000-Jan-01 00:00:00.0000 TDB
Stop  time      : A.D. 2010-Jan-01 00:00:00.0000 TDB
Step-size       : 7200 minutes
*******************************************************************************
Center geodetic : 0.00000000,0.00000000,0.0000000 {E-lon(deg),Lat(deg),Alt(km)}
Center cylindric: 0.00000000,0.00000000,0.0000000 {E-lon(deg),Dxy(km),Dz(km)}
Center radii    : (undefined)                                                  
Output units    : AU-D                                                         
Output type     : GEOMETRIC cartesian states
Output format   : 2 (position and velocity)
Reference frame : ICRF/J2000.0                                                 
Coordinate systm: Ecliptic and Mean Equinox of Reference Epoch                 
*******************************************************************************
JDTDB
   X     Y     Z
   VX    VY    VZ
*******************************************************************************
$$SOE
2452384.500000000 = A.D. 2002-Apr-20 00:00:00.0000 TDB 
  -1.755201507953066E+00  4.902604563397087E+00  1.898714769766808E-02
  -2.222388186322508E-02 -5.178231821292810E-03 -2.092976710040751E-04
2452389.500000000 = A.D. 2002-Apr-25 00:00:00.0000 TDB 
  -1.791412318833307E+00  4.891467742366534E+00  1.982801933123318E-02
  -2.112573476009892E-02 -8.568089756385960E-03 -3.455177682036814E-04
2452394.500000000 = A.D. 2002-Apr-30 00:00:00.0000 TDB 
  -1.827503713313094E+00  4.880015039733060E+00  2.066523090598227E-02
  -1.929391318488838E-02 -1.162669521426327E-02 -4.424076096727223E-04
2452399.500000000 = A.D. 2002-May-05 00:00:00.0000 TDB 
  -1.863460124996697E+00  4.868259657712488E+00  2.150003535016035E-02
  -1.682635843477359E-02 -1.419518519394511E-02 -4.926609141293862E-04
2452404.500000000 = A.D. 2002-May-10 00:00:00.0000 TDB 
  -1.899270200585535E+00  4.856211940697993E+00  2.233355396215271E-02
  -1.385135751613326E-02 -1.614041909513883E-02 -4.942525832545084E-04
2452409.500000000 = A.D. 2002-May-15 00:00:00.0000 TDB 
  -1.934924901403644E+00  4.843879790716466E+00  2.316671441868222E-02
  -1.052012279471955E-02 -1.736276463657777E-02 -4.504244008955057E-04
2452414.500000000 = A.D. 2002-May-20 00:00:00.0000 TDB 
  -1.970416157033653E+00  4.831282148673298E+00  2.400058381830182E-02
  -7.010055008975733E-03 -1.780196978483957E-02 -3.690759995028251E-04
2452419.500000000 = A.D. 2002-May-25 00:00:00.0000 TDB 
  -2.005742031309844E+00  4.818436560315553E+00  2.483580085846175E-02
  -3.505337549474044E-03 -1.743643500670139E-02 -2.608941362226776E-04
2452424.500000000 = A.D. 2002-May-30 00:00:00.0000 TDB 
  -2.040902491869589E+00  4.805352862818991E+00  2.567240455362021E-02
  -1.851119752151272E-04 -1.628867056924151E-02 -1.377431732419980E-04
2452429.500000000 = A.D. 2002-Jun-04 00:00:00.0000 TDB 
  -2.075900139862849E+00  4.792047471027049E+00  2.651035779716930E-02
   2.775323607425751E-03 -1.442058665615775E-02 -1.078442054601776E-05
2452434.500000000 = A.D. 2002-Jun-09 00:00:00.0000 TDB 
  -2.110741244634338E+00  4.778537382427324E+00  2.734941618155458E-02
   5.219621740363868E-03 -1.193274667084778E-02  1.110255197358685E-04
2452439.500000000 = A.D. 2002-Jun-14 00:00:00.0000 TDB 
  -2.145434951384595E+00  4.764829902004308E+00  2.818890981829278E-02
   7.023911417557409E-03 -8.958344782331155E-03  2.219407064625679E-04
2452444.500000000 = A.D. 2002-Jun-19 00:00:00.0000 TDB 
  -2.179992838239088E+00  4.750931136231749E+00  2.902820205484575E-02
   8.094524861928151E-03 -5.657966668162568E-03  3.194160237314030E-04
2452449.500000000 = A.D. 2002-Jun-24 00:00:00.0000 TDB 
  -2.214425600625266E+00  4.736851625027505E+00  2.986702266097043E-02
   8.375118439285513E-03 -2.206782877650819E-03  4.037676501478599E-04
2452454.500000000 = A.D. 2002-Jun-29 00:00:00.0000 TDB 
  -2.248747185384613E+00  4.722592788440206E+00  3.070502212103575E-02
   7.849310037090752E-03  1.211891737966773E-03  4.770036366213232E-04
2452459.500000000 = A.D. 2002-Jul-04 00:00:00.0000 TDB 
  -2.282970760698490E+00  4.708148012015664E+00  3.154190401070888E-02
   6.551163999971589E-03  4.414426748809337E-03  5.414526650916659E-04
2452464.500000000 = A.D. 2002-Jul-09 00:00:00.0000 TDB 
  -2.317106410058676E+00  4.693517448365301E+00  3.237790020906669E-02
   4.547156272471170E-03  7.231281160794798E-03  5.984174455265609E-04
2452469.500000000 = A.D. 2002-Jul-14 00:00:00.0000 TDB 
  -2.351165564422904E+00  4.678695085015928E+00  3.321317969073659E-02
   1.942901714887342E-03  9.511130373383239E-03  6.471418646359860E-04
2452474.500000000 = A.D. 2002-Jul-19 00:00:00.0000 TDB 
  -2.385156488732045E+00  4.663665774851491E+00  3.404767850706500E-02
  -1.119741387184198E-03  1.113317078295869E-02  6.845416568035662E-04
2452479.500000000 = A.D. 2002-Jul-24 00:00:00.0000 TDB 
  -2.419084155734705E+00  4.648419606197314E+00  3.488146711516516E-02
  -4.481722617525479E-03  1.200591156524322E-02  7.051377021436303E-04
2452484.500000000 = A.D. 2002-Jul-29 00:00:00.0000 TDB 
  -2.452950123493820E+00  4.632947259552822E+00  3.571446702304718E-02
  -7.965338093980539E-03  1.208469163216148E-02  7.025064917574464E-04
2452489.500000000 = A.D. 2002-Aug-03 00:00:00.0000 TDB 
  -2.486753934945569E+00  4.617232008097886E+00  3.654607182175786E-02
  -1.138536082643784E-02  1.136338575802006E-02  6.703601876272975E-04
2452494.500000000 = A.D. 2002-Aug-08 00:00:00.0000 TDB 
  -2.520491550283826E+00  4.601257913011155E+00  3.737546583481499E-02
  -1.455888627491009E-02  9.875830907437296E-03  6.041314554487150E-04
2452499.500000000 = A.D. 2002-Aug-13 00:00:00.0000 TDB 
  -2.554153719119176E+00  4.585018228892527E+00  3.820194723454241E-02
  -1.732117563325074E-02  7.699324061382608E-03  5.025852092236284E-04
2452504.500000000 = A.D. 2002-Aug-18 00:00:00.0000 TDB 
  -2.587731540762150E+00  4.568501507735111E+00  3.902447534008957E-02
  -1.952421738111009E-02  4.944432619525467E-03  3.687042721167481E-04
2452509.500000000 = A.D. 2002-Aug-23 00:00:00.0000 TDB 
  -2.621212411799692E+00  4.551694608822042E+00  3.984198062269554E-02
  -2.104924632228680E-02  1.754358823728131E-03  2.101267022418284E-04
2452514.500000000 = A.D. 2002-Aug-28 00:00:00.0000 TDB 
  -2.654580225313477E+00  4.534597325626446E+00  4.065398041597836E-02
  -2.181762172553579E-02 -1.706270665755648E-03  3.841456601454641E-05
2452519.500000000 = A.D. 2002-Sep-02 00:00:00.0000 TDB 
  -2.687819740172966E+00  4.517208542520096E+00  4.146016758204735E-02
  -2.178880606230869E-02 -5.257585538867765E-03 -1.320034006949224E-04
2452524.500000000 = A.D. 2002-Sep-07 00:00:00.0000 TDB 
  -2.720915466404403E+00  4.499524345425312E+00  4.226043459441765E-02
  -2.095840150822406E-02 -8.715737295462742E-03 -2.857046988583816E-04
2452529.500000000 = A.D. 2002-Sep-12 00:00:00.0000 TDB 
  -2.753851447011886E+00  4.481550795871359E+00  4.305535120501976E-02
  -1.937027164466089E-02 -1.190293843701241E-02 -4.085079501864969E-04
2452534.500000000 = A.D. 2002-Sep-17 00:00:00.0000 TDB 
  -2.786612145531881E+00  4.463299313126813E+00  4.384592300684415E-02
  -1.710949555363028E-02 -1.465384811029374E-02 -4.892891749346718E-04
2452539.500000000 = A.D. 2002-Sep-22 00:00:00.0000 TDB 
  -2.819186326588180E+00  4.444777216372666E+00  4.463312662163869E-02
  -1.429101623225268E-02 -1.682560284247374E-02 -5.214348697946250E-04
2452544.500000000 = A.D. 2002-Sep-27 00:00:00.0000 TDB 
  -2.851563617976357E+00  4.425994630788289E+00  4.541808718521820E-02
  -1.106077479322088E-02 -1.830935667784129E-02 -5.039314506826493E-04
2452549.500000000 = A.D. 2002-Oct-02 00:00:00.0000 TDB 
  -2.883734679659477E+00  4.406971512197520E+00  4.620213919768744E-02
  -7.588967038892578E-03 -1.902539688781286E-02 -4.408886301313997E-04
2452554.500000000 = A.D. 2002-Oct-07 00:00:00.0000 TDB 
  -2.915697046936942E+00  4.387721945236924E+00  4.698611194525364E-02
  -4.056103208099429E-03 -1.893988721342547E-02 -3.410876271010455E-04
2452559.500000000 = A.D. 2002-Oct-12 00:00:00.0000 TDB 
  -2.947450062116324E+00  4.368256734646048E+00  4.777040837120024E-02
  -6.425689041223684E-04 -1.806074071471427E-02 -2.162415383296549E-04
2452564.500000000 = A.D. 2002-Oct-17 00:00:00.0000 TDB 
  -2.978995136190741E+00  4.348596173757781E+00  4.855541455359830E-02
   2.470067272521397E-03 -1.643585070537213E-02 -7.916697649296388E-05
2452569.500000000 = A.D. 2002-Oct-22 00:00:00.0000 TDB 
  -3.010337876681159E+00  4.328755304650396E+00  4.934100393823211E-02
   5.120865667083745E-03 -1.415257002276719E-02  5.820726723846884E-05
2452574.500000000 = A.D. 2002-Oct-27 00:00:00.0000 TDB 
  -3.041487373703601E+00  4.308741577150579E+00  5.012655851892223E-02
   7.172758535932351E-03 -1.133115826380864E-02  1.863365404029171E-04
2452579.500000000 = A.D. 2002-Nov-01 00:00:00.0000 TDB 
  -3.072453845798274E+00  4.288565857481521E+00  5.091152824293391E-02
   8.520496739027571E-03 -8.125523025668184E-03  2.989023650758805E-04
2452584.500000000 = A.D. 2002-Nov-06 00:00:00.0000 TDB 
  -3.103247789644143E+00  4.268238612050742E+00  5.169541855820740E-02
   9.092698067226740E-03 -4.703597427424382E-03  3.932848413262498E-04
2452589.500000000 = A.D. 2002-Nov-11 00:00:00.0000 TDB 
  -3.133884523986655E+00  4.247759893766889E+00  5.247751702750190E-02
   8.862824110223301E-03 -1.248816258524259E-03  4.698823275108855E-04
